JILIN-1 GAOFEN 3A       
1 44312U 19032C   26195.91095010  .00005715  00000+0  18425-3 0  9997
2 44312  44.9721 204.2873 0004736 101.9680 258.1736 15.33185915392090
JILIN-1 GAOFEN 2A       
1 44777U 19075A   26195.88621785  .00008114  00000+0  20541-3 0  9997
2 44777  97.4968 280.3364 0005210 356.1425   3.9780 15.40009241369140
JILIN-1 GAOFEN 2B       
1 44836U 19086A   26195.91239667  .00003306  00000+0  15198-3 0  9993
2 44836  97.4875 267.7330 0013209 216.8865 143.1463 15.20997513364700
JILIN-1 GAOFEN 3E       
1 46457U 20065D   26195.90080846  .00048541  00000+0  45150-3 0  9996
2 46457  97.2213 249.2169 0010286  73.1010 287.1378 15.67200239324093
JILIN-1 GAOFEN 3F       
1 46458U 20065E   26195.91478357  .00040494  00000+0  42940-3 0  9999
2 46458  97.2167 246.4238 0011616  59.1128 301.1272 15.63918941324036
JILIN-1 GAOFEN 3G       
1 46459U 20065F   26195.93022063  .00087495  00000+0  53981-3 0  9990
2 46459  97.2221 253.7569 0005312 274.8482  85.2178 15.76880006324300
JILIN-1 GAOFEN 3H       
1 46460U 20065G   26195.90928283  .00060606  00000+0  45823-3 0  9999
2 46460  97.2172 249.8720 0006421 203.5420 156.5551 15.72229041324236
JILIN-1 GAOFEN 2D       
1 49256U 21086A   26195.91186585  .00001964  00000+0  12052-3 0  9991
2 49256  97.6507 318.6178 0034066  51.6164 308.8117 15.10863846264909
JILIN-1 GAOFEN 2F       
1 49338U 21097A   26195.90687785  .00002580  00000+0  17145-3 0  9994
2 49338  97.6730 322.0451 0019725 130.7983 229.4960 15.07945574260493
JILIN-1 GAOFEN 3D27     
1 52444U 22048B   26195.91285198  .00127201  00000+0  59205-3 0  9997
2 52444  97.5728 312.5253 0005212 244.7606 115.3123 15.82995160233852
JILIN-1 GAOFEN 3D28     
1 52445U 22048C   26195.90736881  .00167059  00000+0  60899-3 0  9993
2 52445  97.5663 312.8188 0004986 242.1912 117.8854 15.88002407233914
JILIN-1 GAOFEN 3D29     
1 52446U 22048D   26195.96102006  .00129968  00000+0  59849-3 0  9996
2 52446  97.5731 312.9441 0004480 228.2792 131.8094 15.83222008233888
JILIN-1 GAOFEN 3D31     
1 52448U 22048F   26195.92826232  .00250174  26099-4  69124-3 0  9990
2 52448  97.5700 314.2523 0005568 241.7938 118.2774 15.93849948233986
JILIN-1 GAOFEN 03D09    
1 53445U 22098B   26195.96535424  .00054989  00000+0  45275-3 0  9993
2 53445  97.5630 327.8009 0003432 233.8934 126.2010 15.70226712218989
JILIN-1 GAOFEN 03D43    
1 53448U 22098E   26195.94190016  .00065751  00000+0  46166-3 0  9997
2 53448  97.5615 328.9348 0003655 229.2179 130.8768 15.73975151219051
JILIN-1 GAOFEN 03D08    
1 54251U 22155A   26195.95978935  .00043651  00000+0  40194-3 0  9999
2 54251  97.6235 343.6473 0004251 228.4133 131.6763 15.67531049204167
