{"fetched_at":"2026-07-15T06:36:10.372Z","source":"https://celestrak.org/NORAD/elements/gp.php?NAME=JILIN&FORMAT=JSON","constellation":"jilin-1-gaofen","records":[{"OBJECT_NAME":"JILIN-1 GAOFEN 3A","OBJECT_ID":"2019-032C","EPOCH":"2026-07-14T21:51:46.088640","CLASSIFICATION_TYPE":"U","MEAN_MOTION":15.33185915,"ECCENTRICITY":0.00047365,"INCLINATION":44.9721,"RA_OF_ASC_NODE":204.2873,"ARG_OF_PERICENTER":101.968,"MEAN_ANOMALY":258.1736,"EPHEMERIS_TYPE":0,"NORAD_CAT_ID":44312,"ELEMENT_SET_NO":999,"REV_AT_EPOCH":39209,"BSTAR":0.00018424977,"MEAN_MOTION_DOT":0.00005715,"MEAN_MOTION_DDOT":0},{"OBJECT_NAME":"JILIN-1 GAOFEN 2A","OBJECT_ID":"2019-075A","EPOCH":"2026-07-14T21:16:09.222240","CLASSIFICATION_TYPE":"U","MEAN_MOTION":15.40009241,"ECCENTRICITY":0.00052102,"INCLINATION":97.4968,"RA_OF_ASC_NODE":280.3364,"ARG_OF_PERICENTER":356.1425,"MEAN_ANOMALY":3.978,"EPHEMERIS_TYPE":0,"NORAD_CAT_ID":44777,"ELEMENT_SET_NO":999,"REV_AT_EPOCH":36914,"BSTAR":0.00020541148,"MEAN_MOTION_DOT":0.00008114,"MEAN_MOTION_DDOT":0},{"OBJECT_NAME":"JILIN-1 GAOFEN 2B","OBJECT_ID":"2019-086A","EPOCH":"2026-07-14T21:53:51.072288","CLASSIFICATION_TYPE":"U","MEAN_MOTION":15.20997513,"ECCENTRICITY":0.00132091,"INCLINATION":97.4875,"RA_OF_ASC_NODE":267.733,"ARG_OF_PERICENTER":216.8865,"MEAN_ANOMALY":143.1463,"EPHEMERIS_TYPE":0,"NORAD_CAT_ID":44836,"ELEMENT_SET_NO":999,"REV_AT_EPOCH":36470,"BSTAR":0.00015198439,"MEAN_MOTION_DOT":0.00003306,"MEAN_MOTION_DDOT":0},{"OBJECT_NAME":"JILIN-1 GAOFEN 3E","OBJECT_ID":"2020-065D","EPOCH":"2026-07-14T21:37:09.850944","CLASSIFICATION_TYPE":"U","MEAN_MOTION":15.67200239,"ECCENTRICITY":0.00102861,"INCLINATION":97.2213,"RA_OF_ASC_NODE":249.2169,"ARG_OF_PERICENTER":73.101,"MEAN_ANOMALY":287.1378,"EPHEMERIS_TYPE":0,"NORAD_CAT_ID":46457,"ELEMENT_SET_NO":999,"REV_AT_EPOCH":32409,"BSTAR":0.00045149588,"MEAN_MOTION_DOT":0.00048541,"MEAN_MOTION_DDOT":0},{"OBJECT_NAME":"JILIN-1 GAOFEN 3F","OBJECT_ID":"2020-065E","EPOCH":"2026-07-14T21:57:17.300448","CLASSIFICATION_TYPE":"U","MEAN_MOTION":15.63918941,"ECCENTRICITY":0.00116165,"INCLINATION":97.2167,"RA_OF_ASC_NODE":246.4238,"ARG_OF_PERICENTER":59.1128,"MEAN_ANOMALY":301.1272,"EPHEMERIS_TYPE":0,"NORAD_CAT_ID":46458,"ELEMENT_SET_NO":999,"REV_AT_EPOCH":32403,"BSTAR":0.0004293956,"MEAN_MOTION_DOT":0.00040494,"MEAN_MOTION_DDOT":0},{"OBJECT_NAME":"JILIN-1 GAOFEN 3G","OBJECT_ID":"2020-065F","EPOCH":"2026-07-14T22:19:31.062432","CLASSIFICATION_TYPE":"U","MEAN_MOTION":15.76880006,"ECCENTRICITY":0.00053127,"INCLINATION":97.2221,"RA_OF_ASC_NODE":253.7569,"ARG_OF_PERICENTER":274.8482,"MEAN_ANOMALY":85.2178,"EPHEMERIS_TYPE":0,"NORAD_CAT_ID":46459,"ELEMENT_SET_NO":999,"REV_AT_EPOCH":32430,"BSTAR":0.00053980988,"MEAN_MOTION_DOT":0.00087495,"MEAN_MOTION_DDOT":0},{"OBJECT_NAME":"JILIN-1 GAOFEN 3H","OBJECT_ID":"2020-065G","EPOCH":"2026-07-14T21:49:22.036512","CLASSIFICATION_TYPE":"U","MEAN_MOTION":15.72229041,"ECCENTRICITY":0.00064211,"INCLINATION":97.2172,"RA_OF_ASC_NODE":249.872,"ARG_OF_PERICENTER":203.542,"MEAN_ANOMALY":156.5551,"EPHEMERIS_TYPE":0,"NORAD_CAT_ID":46460,"ELEMENT_SET_NO":999,"REV_AT_EPOCH":32423,"BSTAR":0.00045823144,"MEAN_MOTION_DOT":0.00060606,"MEAN_MOTION_DDOT":0},{"OBJECT_NAME":"JILIN-1 GAOFEN 2D","OBJECT_ID":"2021-086A","EPOCH":"2026-07-14T21:53:05.209440","CLASSIFICATION_TYPE":"U","MEAN_MOTION":15.10863846,"ECCENTRICITY":0.00340665,"INCLINATION":97.6507,"RA_OF_ASC_NODE":318.6178,"ARG_OF_PERICENTER":51.6164,"MEAN_ANOMALY":308.8117,"EPHEMERIS_TYPE":0,"NORAD_CAT_ID":49256,"ELEMENT_SET_NO":999,"REV_AT_EPOCH":26490,"BSTAR":0.00012051564,"MEAN_MOTION_DOT":0.00001964,"MEAN_MOTION_DDOT":0},{"OBJECT_NAME":"JILIN-1 GAOFEN 2F","OBJECT_ID":"2021-097A","EPOCH":"2026-07-14T21:45:54.246240","CLASSIFICATION_TYPE":"U","MEAN_MOTION":15.07945574,"ECCENTRICITY":0.00197259,"INCLINATION":97.673,"RA_OF_ASC_NODE":322.0451,"ARG_OF_PERICENTER":130.7983,"MEAN_ANOMALY":229.496,"EPHEMERIS_TYPE":0,"NORAD_CAT_ID":49338,"ELEMENT_SET_NO":999,"REV_AT_EPOCH":26049,"BSTAR":0.00017144562,"MEAN_MOTION_DOT":0.0000258,"MEAN_MOTION_DDOT":0},{"OBJECT_NAME":"JILIN-1 GAOFEN 3D27","OBJECT_ID":"2022-048B","EPOCH":"2026-07-14T21:54:30.411072","CLASSIFICATION_TYPE":"U","MEAN_MOTION":15.8299516,"ECCENTRICITY":0.00052123,"INCLINATION":97.5728,"RA_OF_ASC_NODE":312.5253,"ARG_OF_PERICENTER":244.7606,"MEAN_ANOMALY":115.3123,"EPHEMERIS_TYPE":0,"NORAD_CAT_ID":52444,"ELEMENT_SET_NO":999,"REV_AT_EPOCH":23385,"BSTAR":0.00059205113,"MEAN_MOTION_DOT":0.00127201,"MEAN_MOTION_DDOT":0},{"OBJECT_NAME":"JILIN-1 GAOFEN 3D28","OBJECT_ID":"2022-048C","EPOCH":"2026-07-14T21:46:36.665184","CLASSIFICATION_TYPE":"U","MEAN_MOTION":15.88002407,"ECCENTRICITY":0.00049867,"INCLINATION":97.5663,"RA_OF_ASC_NODE":312.8188,"ARG_OF_PERICENTER":242.1912,"MEAN_ANOMALY":117.8854,"EPHEMERIS_TYPE":0,"NORAD_CAT_ID":52445,"ELEMENT_SET_NO":999,"REV_AT_EPOCH":23391,"BSTAR":0.00060899443,"MEAN_MOTION_DOT":0.00167059,"MEAN_MOTION_DDOT":0},{"OBJECT_NAME":"JILIN-1 GAOFEN 3D29","OBJECT_ID":"2022-048D","EPOCH":"2026-07-14T23:03:52.133184","CLASSIFICATION_TYPE":"U","MEAN_MOTION":15.83222008,"ECCENTRICITY":0.00044805,"INCLINATION":97.5731,"RA_OF_ASC_NODE":312.9441,"ARG_OF_PERICENTER":228.2792,"MEAN_ANOMALY":131.8094,"EPHEMERIS_TYPE":0,"NORAD_CAT_ID":52446,"ELEMENT_SET_NO":999,"REV_AT_EPOCH":23388,"BSTAR":0.00059849015,"MEAN_MOTION_DOT":0.00129968,"MEAN_MOTION_DDOT":0},{"OBJECT_NAME":"JILIN-1 GAOFEN 3D31","OBJECT_ID":"2022-048F","EPOCH":"2026-07-14T22:16:41.864448","CLASSIFICATION_TYPE":"U","MEAN_MOTION":15.93849948,"ECCENTRICITY":0.00055683,"INCLINATION":97.57,"RA_OF_ASC_NODE":314.2523,"ARG_OF_PERICENTER":241.7938,"MEAN_ANOMALY":118.2774,"EPHEMERIS_TYPE":0,"NORAD_CAT_ID":52448,"ELEMENT_SET_NO":999,"REV_AT_EPOCH":23398,"BSTAR":0.0006912444,"MEAN_MOTION_DOT":0.00250174,"MEAN_MOTION_DDOT":0.000026099248},{"OBJECT_NAME":"JILIN-1 GAOFEN 03D09","OBJECT_ID":"2022-098B","EPOCH":"2026-07-14T23:10:06.606336","CLASSIFICATION_TYPE":"U","MEAN_MOTION":15.70226712,"ECCENTRICITY":0.00034324,"INCLINATION":97.563,"RA_OF_ASC_NODE":327.8009,"ARG_OF_PERICENTER":233.8934,"MEAN_ANOMALY":126.201,"EPHEMERIS_TYPE":0,"NORAD_CAT_ID":53445,"ELEMENT_SET_NO":999,"REV_AT_EPOCH":21898,"BSTAR":0.00045274687,"MEAN_MOTION_DOT":0.00054989,"MEAN_MOTION_DDOT":0},{"OBJECT_NAME":"JILIN-1 GAOFEN 03D43","OBJECT_ID":"2022-098E","EPOCH":"2026-07-14T22:36:20.173824","CLASSIFICATION_TYPE":"U","MEAN_MOTION":15.73975151,"ECCENTRICITY":0.00036558,"INCLINATION":97.5615,"RA_OF_ASC_NODE":328.9348,"ARG_OF_PERICENTER":229.2179,"MEAN_ANOMALY":130.8768,"EPHEMERIS_TYPE":0,"NORAD_CAT_ID":53448,"ELEMENT_SET_NO":999,"REV_AT_EPOCH":21905,"BSTAR":0.0004616638,"MEAN_MOTION_DOT":0.00065751,"MEAN_MOTION_DDOT":0},{"OBJECT_NAME":"JILIN-1 GAOFEN 03D08","OBJECT_ID":"2022-155A","EPOCH":"2026-07-14T23:02:05.799840","CLASSIFICATION_TYPE":"U","MEAN_MOTION":15.67531049,"ECCENTRICITY":0.00042515,"INCLINATION":97.6235,"RA_OF_ASC_NODE":343.6473,"ARG_OF_PERICENTER":228.4133,"MEAN_ANOMALY":131.6763,"EPHEMERIS_TYPE":0,"NORAD_CAT_ID":54251,"ELEMENT_SET_NO":999,"REV_AT_EPOCH":20416,"BSTAR":0.00040193882,"MEAN_MOTION_DOT":0.00043651,"MEAN_MOTION_DDOT":0}]}
